[
    {
        "Altitude(m)": 556769.5315379136,
        "Argument of Periapsis(deg)": 0.019868973332140504,
        "Eccentricity": 0.0,
        "Inclination(deg)": 53.0,
        "Latitude(deg)": 39.1982520854187,
        "Longitude(deg)": 20.29449306724372,
        "Mean Anomaly(deg)": 52.092978602732764,
        "RAAN(deg)": 84.97043010558404,
        "Satellite Name": "Starlink Shell 1 375",
        "Satellite Number": 375,
        "Semi-Major Axis(m)": 6931778.249405717,
        "Time(s)": 570
    },
    {
        "Altitude(m)": 556852.8284265277,
        "Argument of Periapsis(deg)": 0.02021755181165174,
        "Eccentricity": 0.0,
        "Inclination(deg)": 53.0,
        "Latitude(deg)": 39.593920536753174,
        "Longitude(deg)": 20.882234928592236,
        "Mean Anomaly(deg)": 52.7198098062895,
        "RAAN(deg)": 84.96991133550658,
        "Satellite Name": "Starlink Shell 1 375",
        "Satellite Number": 375,
        "Semi-Major Axis(m)": 6931778.249405717,
        "Time(s)": 580
    },
    {
        "Altitude(m)": 556935.9480104939,
        "Argument of Periapsis(deg)": 0.020566130291162974,
        "Eccentricity": 0.0,
        "Inclination(deg)": 53.0,
        "Latitude(deg)": 39.98611816010684,
        "Longitude(deg)": 21.477135760678564,
        "Mean Anomaly(deg)": 53.3466410098462,
        "RAAN(deg)": 84.9693925654291,
        "Satellite Name": "Starlink Shell 1 375",
        "Satellite Number": 375,
        "Semi-Major Axis(m)": 6931778.249405717,
        "Time(s)": 590
    },
    {
        "Altitude(m)": 557018.8363236857,
        "Argument of Periapsis(deg)": 0.020914708770674213,
        "Eccentricity": 0.0,
        "Inclination(deg)": 53.0,
        "Latitude(deg)": 40.37475764720071,
        "Longitude(deg)": 22.079313412819406,
        "Mean Anomaly(deg)": 53.973472213402914,
        "RAAN(deg)": 84.96887379535163,
        "Satellite Name": "Starlink Shell 1 375",
        "Satellite Number": 375,
        "Semi-Major Axis(m)": 6931778.249405717,
        "Time(s)": 600
    },
    {
        "Altitude(m)": 557101.4397280198,
        "Argument of Periapsis(deg)": 0.021263287250185448,
        "Eccentricity": 0.0,
        "Inclination(deg)": 53.0,
        "Latitude(deg)": 40.75974985177921,
        "Longitude(deg)": 22.688884616015937,
        "Mean Anomaly(deg)": 54.600303416959626,
        "RAAN(deg)": 84.96835502527416,
        "Satellite Name": "Starlink Shell 1 375",
        "Satellite Number": 375,
        "Semi-Major Axis(m)": 6931778.249405717,
        "Time(s)": 610
    },
    {
        "Altitude(m)": 557183.7049406559,
        "Argument of Periapsis(deg)": 0.021611865729696686,
        "Eccentricity": 0.0,
        "Inclination(deg)": 53.0,
        "Latitude(deg)": 41.14100377848244,
        "Longitude(deg)": 23.30596523994029,
        "Mean Anomaly(deg)": 55.22713462051634,
        "RAAN(deg)": 84.96783625519669,
        "Satellite Name": "Starlink Shell 1 375",
        "Satellite Number": 375,
        "Semi-Major Axis(m)": 6931778.249405717,
        "Time(s)": 620
    },
    {
        "Altitude(m)": 557265.5790609759,
        "Argument of Periapsis(deg)": 0.02196044420920792,
        "Eccentricity": 0.0,
        "Inclination(deg)": 53.0,
        "Latitude(deg)": 41.518426575008256,
        "Longitude(deg)": 23.930668852259977,
        "Mean Anomaly(deg)": 55.85396582407304,
        "RAAN(deg)": 84.96731748511921,
        "Satellite Name": "Starlink Shell 1 375",
        "Satellite Number": 375,
        "Semi-Major Axis(m)": 6931778.249405717,
        "Time(s)": 630
    },
    {
        "Altitude(m)": 557347.0095973447,
        "Argument of Periapsis(deg)": 0.02230902268871916,
        "Eccentricity": 0.0,
        "Inclination(deg)": 53.0,
        "Latitude(deg)": 41.89192352789123,
        "Longitude(deg)": 24.563107782239896,
        "Mean Anomaly(deg)": 56.48079702762976,
        "RAAN(deg)": 84.96679871504175,
        "Satellite Name": "Starlink Shell 1 375",
        "Satellite Number": 375,
        "Semi-Major Axis(m)": 6931778.249405717,
        "Time(s)": 640
    },
    {
        "Altitude(m)": 557427.9444936302,
        "Argument of Periapsis(deg)": 0.022657601168230398,
        "Eccentricity": 0.0,
        "Inclination(deg)": 53.0,
        "Latitude(deg)": 42.261398062224636,
        "Longitude(deg)": 25.20339164526833,
        "Mean Anomaly(deg)": 57.107628231186474,
        "RAAN(deg)": 84.96627994496427,
        "Satellite Name": "Starlink Shell 1 375",
        "Satellite Number": 375,
        "Semi-Major Axis(m)": 6931778.249405717,
        "Time(s)": 650
    },
    {
        "Altitude(m)": 557508.3321554571,
        "Argument of Periapsis(deg)": 0.023006179647741636,
        "Eccentricity": 0.0,
        "Inclination(deg)": 53.0,
        "Latitude(deg)": 42.62675174568356,
        "Longitude(deg)": 25.851627530355866,
        "Mean Anomaly(deg)": 57.73445943474321,
        "RAAN(deg)": 84.9657611748868,
        "Satellite Name": "Starlink Shell 1 375",
        "Satellite Number": 375,
        "Semi-Major Axis(m)": 6931778.249405717,
        "Time(s)": 660
    },
    {
        "Altitude(m)": 557588.1214762122,
        "Argument of Periapsis(deg)": 0.023354758127252868,
        "Eccentricity": 0.0,
        "Inclination(deg)": 53.0,
        "Latitude(deg)": 42.987884297211345,
        "Longitude(deg)": 26.507920169324183,
        "Mean Anomaly(deg)": 58.36129063829993,
        "RAAN(deg)": 84.96524240480933,
        "Satellite Name": "Starlink Shell 1 375",
        "Satellite Number": 375,
        "Semi-Major Axis(m)": 6931778.249405717,
        "Time(s)": 670
    },
    {
        "Altitude(m)": 557667.2618627497,
        "Argument of Periapsis(deg)": 0.023703336606764106,
        "Eccentricity": 0.0,
        "Inclination(deg)": 53.0,
        "Latitude(deg)": 43.34469360074602,
        "Longitude(deg)": 27.17237057458336,
        "Mean Anomaly(deg)": 58.98812184185664,
        "RAAN(deg)": 84.96472363473185,
        "Satellite Name": "Starlink Shell 1 375",
        "Satellite Number": 375,
        "Semi-Major Axis(m)": 6931778.249405717,
        "Time(s)": 680
    },
    {
        "Altitude(m)": 557745.7032608428,
        "Argument of Periapsis(deg)": 0.024051915086275345,
        "Eccentricity": 0.0,
        "Inclination(deg)": 53.0,
        "Latitude(deg)": 43.69707572438375,
        "Longitude(deg)": 27.845076171111476,
        "Mean Anomaly(deg)": 59.614953045413344,
        "RAAN(deg)": 84.96420486465438,
        "Satellite Name": "Starlink Shell 1 375",
        "Satellite Number": 375,
        "Semi-Major Axis(m)": 6931778.249405717,
        "Time(s)": 690
    },
    {
        "Altitude(m)": 557823.3961802925,
        "Argument of Periapsis(deg)": 0.024400493565786583,
        "Eccentricity": 0.0,
        "Inclination(deg)": 53.0,
        "Latitude(deg)": 44.044924945380025,
        "Longitude(deg)": 28.526130909738,
        "Mean Anomaly(deg)": 60.24178424897004,
        "RAAN(deg)": 84.96368609457691,
        "Satellite Name": "Starlink Shell 1 375",
        "Satellite Number": 375,
        "Semi-Major Axis(m)": 6931778.249405717,
        "Time(s)": 700
    },
    {
        "Altitude(m)": 557900.2917197519,
        "Argument of Periapsis(deg)": 0.024749072045297815,
        "Eccentricity": 0.0,
        "Inclination(deg)": 53.0,
        "Latitude(deg)": 44.38813378139864,
        "Longitude(deg)": 29.215623848952823,
        "Mean Anomaly(deg)": 60.86861545252678,
        "RAAN(deg)": 84.96316732449944,
        "Satellite Name": "Starlink Shell 1 375",
        "Satellite Number": 375,
        "Semi-Major Axis(m)": 6931778.249405717,
        "Time(s)": 710
    },
    {
        "Altitude(m)": 557976.3415912268,
        "Argument of Periapsis(deg)": 0.025097650524809053,
        "Eccentricity": 0.0,
        "Inclination(deg)": 53.0,
        "Latitude(deg)": 44.72659302843432,
        "Longitude(deg)": 29.91363923122719,
        "Mean Anomaly(deg)": 61.49544665608349,
        "RAAN(deg)": 84.96264855442196,
        "Satellite Name": "Starlink Shell 1 375",
        "Satellite Number": 375,
        "Semi-Major Axis(m)": 6931778.249405717,
        "Time(s)": 720
    },
    {
        "Altitude(m)": 558051.4981442122,
        "Argument of Periapsis(deg)": 0.02544622900432029,
        "Eccentricity": 0.0,
        "Inclination(deg)": 53.0,
        "Latitude(deg)": 45.060191805831856,
        "Longitude(deg)": 30.620256541358724,
        "Mean Anomaly(deg)": 62.12227785964021,
        "RAAN(deg)": 84.9621297843445,
        "Satellite Name": "Starlink Shell 1 375",
        "Satellite Number": 375,
        "Semi-Major Axis(m)": 6931778.249405717,
        "Time(s)": 730
    },
    {
        "Altitude(m)": 558125.7143895386,
        "Argument of Periapsis(deg)": 0.02579480748383153,
        "Eccentricity": 0.0,
        "Inclination(deg)": 53.0,
        "Latitude(deg)": 45.388817608827075,
        "Longitude(deg)": 31.33554903452667,
        "Mean Anomaly(deg)": 62.74910906319693,
        "RAAN(deg)": 84.96161101426702,
        "Satellite Name": "Starlink Shell 1 375",
        "Satellite Number": 375,
        "Semi-Major Axis(m)": 6931778.249405717,
        "Time(s)": 740
    },
    {
        "Altitude(m)": 558198.9440227975,
        "Argument of Periapsis(deg)": 0.026143385963342765,
        "Eccentricity": 0.0,
        "Inclination(deg)": 53.0,
        "Latitude(deg)": 45.71235636904228,
        "Longitude(deg)": 32.05958376054945,
        "Mean Anomaly(deg)": 63.375940266753624,
        "RAAN(deg)": 84.96109224418954,
        "Satellite Name": "Starlink Shell 1 375",
        "Satellite Number": 375,
        "Semi-Major Axis(m)": 6931778.249405717,
        "Time(s)": 750
    }
]